{"type": "FeatureCollection", "features": [ {"type": "Feature", "properties": {"norad_id": 66746, "name": "TRANSPORTER-15 CJ", "group": "last-30-days", "lat": -25.99267333116605, "lon": 70.51140458164292, "alt_km": 519.56336747963, "timestamp": "2025-12-21T05:44:50.291046+00:00", "meta": {"OBJECT_NAME": "TRANSPORTER-15 CJ", "OBJECT_ID": "2025-276CJ", "EPOCH": "2025-12-19T04:48:03.204576", "MEAN_MOTION": 15.17416472, "ECCENTRICITY": 9.628e-05, "INCLINATION": 97.4422, "RA_OF_ASC_NODE": 64.8535, "ARG_OF_PERICENTER": 234.0891, "MEAN_ANOMALY": 126.0254, "EPHEMERIS_TYPE": 0, "CLASSIFICATION_TYPE": "U", "NORAD_CAT_ID": 66746, "ELEMENT_SET_NO": 999, "REV_AT_EPOCH": 310, "BSTAR": 0.00013979791, "MEAN_MOTION_DOT": 2.728e-05, "MEAN_MOTION_DDOT": 0}, "tle": {"line1": "1 66746U 25276CJ  25353.20003709  .00002728  00000+0  13980-3 0  9992", "line2": "2 66746  97.4422  64.8535 0000962 234.0891 126.0254 15.17416472  3106"}}, "geometry": {"type": "Point", "coordinates": [70.51140458164292, -25.99267333116605]}}, {"type": "Feature", "properties": {"norad_id": 66747, "name": "W-SERIES 5", "group": "last-30-days", "lat": -30.529070147175368, "lon": 71.27762513782969, "alt_km": 543.1553653559204, "timestamp": "2025-12-21T05:44:50.291056+00:00", "meta": {"OBJECT_NAME": "W-SERIES 5", "OBJECT_ID": "2025-276CK", "EPOCH": "2025-12-20T20:21:24.214752", "MEAN_MOTION": 15.13415152, "ECCENTRICITY": 0.00191188, "INCLINATION": 97.4421, "RA_OF_ASC_NODE": 66.475, "ARG_OF_PERICENTER": 86.4579, "MEAN_ANOMALY": 273.8839, "EPHEMERIS_TYPE": 0, "CLASSIFICATION_TYPE": "U", "NORAD_CAT_ID": 66747, "ELEMENT_SET_NO": 999, "REV_AT_EPOCH": 335, "BSTAR": -0.13100013, "MEAN_MOTION_DOT": -0.02111308, "MEAN_MOTION_DDOT": 0}, "tle": {"line1": "1 66747U 25276CK  25354.84819693 -.02111308  00000+0 -13100+0 0  9990", "line2": "2 66747  97.4421  66.4750 0019118  86.4579 273.8839 15.13415152  3355"}}, "geometry": {"type": "Point", "coordinates": [71.27762513782969, -30.529070147175368]}}, {"type": "Feature", "properties": {"norad_id": 66748, "name": "TRANSPORTER-15 CL", "group": "last-30-days", "lat": 22.682773785662537, "lon": 63.74536771601649, "alt_km": 511.49590480374263, "timestamp": "2025-12-21T05:44:50.291068+00:00", "meta": {"OBJECT_NAME": "TRANSPORTER-15 CL", "OBJECT_ID": "2025-276CL", "EPOCH": "2025-12-20T18:34:32.122560", "MEAN_MOTION": 15.18412807, "ECCENTRICITY": 0.00019051, "INCLINATION": 97.4414, "RA_OF_ASC_NODE": 66.4189, "ARG_OF_PERICENTER": 231.8116, "MEAN_ANOMALY": 128.2947, "EPHEMERIS_TYPE": 0, "CLASSIFICATION_TYPE": "U", "NORAD_CAT_ID": 66748, "ELEMENT_SET_NO": 999, "REV_AT_EPOCH": 334, "BSTAR": 0.00064758443, "MEAN_MOTION_DOT": 0.00013271, "MEAN_MOTION_DDOT": 0}, "tle": {"line1": "1 66748U 25276CL  25354.77398290  .00013271  00000+0  64758-3 0  9993", "line2": "2 66748  97.4414  66.4189 0001905 231.8116 128.2947 15.18412807  3343"}}, "geometry": {"type": "Point", "coordinates": [63.74536771601649, 22.682773785662537]}}, {"type": "Feature", "properties": {"norad_id": 66749, "name": "TRANSPORTER-15 CM", "group": "last-30-days", "lat": 1.7864439475749831, "lon": 66.63157816082223, "alt_km": 516.3238610488488, "timestamp": "2025-12-21T05:44:50.291079+00:00", "meta": {"OBJECT_NAME": "TRANSPORTER-15 CM", "OBJECT_ID": "2025-276CM", "EPOCH": "2025-12-20T18:39:50.388192", "MEAN_MOTION": 15.17841988, "ECCENTRICITY": 0.00016863, "INCLINATION": 97.4409, "RA_OF_ASC_NODE": 66.4112, "ARG_OF_PERICENTER": 198.3638, "MEAN_ANOMALY": 161.7536, "EPHEMERIS_TYPE": 0, "CLASSIFICATION_TYPE": "U", "NORAD_CAT_ID": 66749, "ELEMENT_SET_NO": 999, "REV_AT_EPOCH": 334, "BSTAR": 0.00024595088, "MEAN_MOTION_DOT": 4.911e-05, "MEAN_MOTION_DDOT": 0}, "tle": {"line1": "1 66749U 25276CM  25354.77766653  .00004911  00000+0  24595-3 0  9992", "line2": "2 66749  97.4409  66.4112 0001686 198.3638 161.7536 15.17841988  3347"}}, "geometry": {"type": "Point", "coordinates": [66.63157816082223, 1.7864439475749831]}}, {"type": "Feature", "properties": {"norad_id": 66750, "name": "TRANSPORTER-15 CN", "group": "last-30-days", "lat": 17.64256447208005, "lon": 64.50263731524602, "alt_km": 513.3414057621412, "timestamp": "2025-12-21T05:44:50.291089+00:00", "meta": {"OBJECT_NAME": "TRANSPORTER-15 CN", "OBJECT_ID": "2025-276CN", "EPOCH": "2025-12-20T18:35:41.799840", "MEAN_MOTION": 15.18009468, "ECCENTRICITY": 0.00019255, "INCLINATION": 97.4448, "RA_OF_ASC_NODE": 66.429, "ARG_OF_PERICENTER": 156.7185, "MEAN_ANOMALY": 203.4137, "EPHEMERIS_TYPE": 0, "CLASSIFICATION_TYPE": "U", "NORAD_CAT_ID": 66750, "ELEMENT_SET_NO": 999, "REV_AT_EPOCH": 334, "BSTAR": 0.00027660741, "MEAN_MOTION_DOT": 5.559e-05, "MEAN_MOTION_DDOT": 0}, "tle": {"line1": "1 66750U 25276CN  25354.77478935  .00005559  00000+0  27661-3 0  9993", "line2": "2 66750  97.4448  66.4290 0001925 156.7185 203.4137 15.18009468  3341"}}, "geometry": {"type": "Point", "coordinates": [64.50263731524602, 17.64256447208005]}}, {"type": "Feature", "properties": {"norad_id": 66751, "name": "ICEYE-X58", "group": "last-30-days", "lat": 0.3327240199638119, "lon": 66.82902995905611, "alt_km": 516.8172994429842, "timestamp": "2025-12-21T05:44:50.291101+00:00", "meta": {"OBJECT_NAME": "ICEYE-X58", "OBJECT_ID": "2025-276CP", "EPOCH": "2025-12-20T18:40:12.000288", "MEAN_MOTION": 15.17782016, "ECCENTRICITY": 0.000217, "INCLINATION": 97.4422, "RA_OF_ASC_NODE": 66.4188, "ARG_OF_PERICENTER": 216.0212, "MEAN_ANOMALY": 144.0876, "EPHEMERIS_TYPE": 0, "CLASSIFICATION_TYPE": "U", "NORAD_CAT_ID": 66751, "ELEMENT_SET_NO": 999, "REV_AT_EPOCH": 334, "BSTAR": 0.00020533939, "MEAN_MOTION_DOT": 4.082e-05, "MEAN_MOTION_DDOT": 0}, "tle": {"line1": "1 66751U 25276CP  25354.77791667  .00004082  00000+0  20534-3 0  9996", "line2": "2 66751  97.4422  66.4188 0002170 216.0212 144.0876 15.17782016  3340"}}, "geometry": {"type": "Point", "coordinates": [66.82902995905611, 0.3327240199638119]}}, {"type": "Feature", "properties": {"norad_id": 66752, "name": "ICEYE-X59", "group": "last-30-days", "lat": -14.976348993339354, "lon": 68.86972842181456, "alt_km": 518.0700636000183, "timestamp": "2025-12-21T05:44:50.291111+00:00", "meta": {"OBJECT_NAME": "ICEYE-X59", "OBJECT_ID": "2025-276CQ", "EPOCH": "2025-12-20T15:34:17.467392", "MEAN_MOTION": 15.17584197, "ECCENTRICITY": 0.00017417, "INCLINATION": 97.4415, "RA_OF_ASC_NODE": 66.2856, "ARG_OF_PERICENTER": 250.6828, "MEAN_ANOMALY": 109.4217, "EPHEMERIS_TYPE": 0, "CLASSIFICATION_TYPE": "U", "NORAD_CAT_ID": 66752, "ELEMENT_SET_NO": 999, "REV_AT_EPOCH": 332, "BSTAR": 0.00019609428, "MEAN_MOTION_DOT": 3.873e-05, "MEAN_MOTION_DDOT": 0}, "tle": {"line1": "1 66752U 25276CQ  25354.64881328  .00003873  00000+0  19609-3 0  9995", "line2": "2 66752  97.4415  66.2856 0001741 250.6828 109.4217 15.17584197  3325"}}, "geometry": {"type": "Point", "coordinates": [68.86972842181456, -14.976348993339354]}}, {"type": "Feature", "properties": {"norad_id": 66753, "name": "ICEYE-X60", "group": "last-30-days", "lat": -33.94363294853857, "lon": 71.90121352576726, "alt_km": 519.3941151670015, "timestamp": "2025-12-21T05:44:50.291121+00:00", "meta": {"OBJECT_NAME": "ICEYE-X60", "OBJECT_ID": "2025-276CR", "EPOCH": "2025-12-20T21:59:04.360416", "MEAN_MOTION": 15.17364728, "ECCENTRICITY": 0.00012037, "INCLINATION": 97.4419, "RA_OF_ASC_NODE": 66.5361, "ARG_OF_PERICENTER": 291.255, "MEAN_ANOMALY": 68.8555, "EPHEMERIS_TYPE": 0, "CLASSIFICATION_TYPE": "U", "NORAD_CAT_ID": 66753, "ELEMENT_SET_NO": 999, "REV_AT_EPOCH": 336, "BSTAR": 0.00027406214, "MEAN_MOTION_DOT": 5.406e-05, "MEAN_MOTION_DDOT": 0}, "tle": {"line1": "1 66753U 25276CR  25354.91602269  .00005406  00000+0  27406-3 0  9999", "line2": "2 66753  97.4419  66.5361 0001203 291.2550  68.8555 15.17364728  3363"}}, "geometry": {"type": "Point", "coordinates": [71.90121352576726, -33.94363294853857]}}, {"type": "Feature", "properties": {"norad_id": 66754, "name": "ICEYE-X61", "group": "last-30-days", "lat": 4.781370206253561, "lon": 66.24310095951142, "alt_km": 516.2060106737526, "timestamp": "2025-12-21T05:44:50.291135+00:00", "meta": {"OBJECT_NAME": "ICEYE-X61", "OBJECT_ID": "2025-276CS", "EPOCH": "2025-12-20T15:29:10.229856", "MEAN_MOTION": 15.17826457, "ECCENTRICITY": 0.00020566, "INCLINATION": 97.4416, "RA_OF_ASC_NODE": 66.2854, "ARG_OF_PERICENTER": 202.4059, "MEAN_ANOMALY": 157.7086, "EPHEMERIS_TYPE": 0, "CLASSIFICATION_TYPE": "U", "NORAD_CAT_ID": 66754, "ELEMENT_SET_NO": 999, "REV_AT_EPOCH": 332, "BSTAR": 0.00016616989, "MEAN_MOTION_DOT": 3.295e-05, "MEAN_MOTION_DDOT": 0}, "tle": {"line1": "1 66754U 25276CS  25354.64525729  .00003295  00000+0  16617-3 0  9991", "line2": "2 66754  97.4416  66.2854 0002056 202.4059 157.7086 15.17826457  3325"}}, "geometry": {"type": "Point", "coordinates": [66.24310095951142, 4.781370206253561]}}, {"type": "Feature", "properties": {"norad_id": 66755, "name": "ICEYE-X62", "group": "last-30-days", "lat": -16.57225939896073, "lon": 69.0889713778327, "alt_km": 518.1174577991123, "timestamp": "2025-12-21T05:44:50.291145+00:00", "meta": {"OBJECT_NAME": "ICEYE-X62", "OBJECT_ID": "2025-276CT", "EPOCH": "2025-12-20T15:34:43.491072", "MEAN_MOTION": 15.17600223, "ECCENTRICITY": 8.246e-05, "INCLINATION": 97.4418, "RA_OF_ASC_NODE": 66.2796, "ARG_OF_PERICENTER": 248.0203, "MEAN_ANOMALY": 112.0944, "EPHEMERIS_TYPE": 0, "CLASSIFICATION_TYPE": "U", "NORAD_CAT_ID": 66755, "ELEMENT_SET_NO": 999, "REV_AT_EPOCH": 332, "BSTAR": 0.00017662282, "MEAN_MOTION_DOT": 3.483e-05, "MEAN_MOTION_DDOT": 0}, "tle": {"line1": "1 66755U 25276CT  25354.64911448  .00003483  00000+0  17662-3 0  9999", "line2": "2 66755  97.4418  66.2796 0000824 248.0203 112.0944 15.17600223  3329"}}, "geometry": {"type": "Point", "coordinates": [69.0889713778327, -16.57225939896073]}}]}